[{"OBJECT_NAME":"ONEWEB-0234","OBJECT_ID":"2021-045S","EPOCH":"2025-09-04T04:27:41.359968","MEAN_MOTION":13.15550852,"ECCENTRICITY":0.00020938,"INCLINATION":87.9054,"RA_OF_ASC_NODE":316.2408,"ARG_OF_PERICENTER":123.1247,"MEAN_ANOMALY":237.0084,"EPHEMERIS_TYPE":0,"CLASSIFICATION_TYPE":"U","NORAD_CAT_ID":48783,"ELEMENT_SET_NO":999,"REV_AT_EPOCH":20687,"BSTAR":0.00059022402,"MEAN_MOTION_DOT":2.35e-6,"MEAN_MOTION_DDOT":0},{"OBJECT_NAME":"ONEWEB-0238","OBJECT_ID":"2021-045T","EPOCH":"2025-09-04T04:28:04.743264","MEAN_MOTION":13.15548684,"ECCENTRICITY":0.00019622,"INCLINATION":87.9049,"RA_OF_ASC_NODE":316.2369,"ARG_OF_PERICENTER":108.509,"MEAN_ANOMALY":251.6253,"EPHEMERIS_TYPE":0,"CLASSIFICATION_TYPE":"U","NORAD_CAT_ID":48784,"ELEMENT_SET_NO":999,"REV_AT_EPOCH":20677,"BSTAR":0.00044369161,"MEAN_MOTION_DOT":1.8e-6,"MEAN_MOTION_DDOT":0},{"OBJECT_NAME":"ONEWEB-0240","OBJECT_ID":"2021-045U","EPOCH":"2025-09-04T04:58:40.199808","MEAN_MOTION":13.15547298,"ECCENTRICITY":0.00014996,"INCLINATION":87.9057,"RA_OF_ASC_NODE":316.2167,"ARG_OF_PERICENTER":100.2321,"MEAN_ANOMALY":259.8979,"EPHEMERIS_TYPE":0,"CLASSIFICATION_TYPE":"U","NORAD_CAT_ID":48785,"ELEMENT_SET_NO":999,"REV_AT_EPOCH":20680,"BSTAR":-8.7366411e-5,"MEAN_MOTION_DOT":-2.0e-7,"MEAN_MOTION_DDOT":0},{"OBJECT_NAME":"ONEWEB-0246","OBJECT_ID":"2021-045V","EPOCH":"2025-09-04T04:50:41.306208","MEAN_MOTION":13.15548692,"ECCENTRICITY":0.00018544,"INCLINATION":87.9059,"RA_OF_ASC_NODE":316.2302,"ARG_OF_PERICENTER":92.412,"MEAN_ANOMALY":267.7223,"EPHEMERIS_TYPE":0,"CLASSIFICATION_TYPE":"U","NORAD_CAT_ID":48786,"ELEMENT_SET_NO":999,"REV_AT_EPOCH":20667,"BSTAR":9.6323823e-5,"MEAN_MOTION_DOT":4.9e-7,"MEAN_MOTION_DDOT":0},{"OBJECT_NAME":"ONEWEB-0210","OBJECT_ID":"2021-045W","EPOCH":"2025-09-04T04:14:11.036832","MEAN_MOTION":13.15548088,"ECCENTRICITY":0.00016955,"INCLINATION":87.9057,"RA_OF_ASC_NODE":316.2347,"ARG_OF_PERICENTER":75.4428,"MEAN_ANOMALY":284.689,"EPHEMERIS_TYPE":0,"CLASSIFICATION_TYPE":"U","NORAD_CAT_ID":48787,"ELEMENT_SET_NO":999,"REV_AT_EPOCH":20671,"BSTAR":0.00037055639,"MEAN_MOTION_DOT":1.52e-6,"MEAN_MOTION_DDOT":0},{"OBJECT_NAME":"ONEWEB-0214","OBJECT_ID":"2021-045X","EPOCH":"2025-09-04T04:26:42.926784","MEAN_MOTION":13.15547638,"ECCENTRICITY":0.00019007,"INCLINATION":87.9055,"RA_OF_ASC_NODE":316.2208,"ARG_OF_PERICENTER":82.1233,"MEAN_ANOMALY":278.0113,"EPHEMERIS_TYPE":0,"CLASSIFICATION_TYPE":"U","NORAD_CAT_ID":48788,"ELEMENT_SET_NO":999,"REV_AT_EPOCH":20668,"BSTAR":0.00056843389,"MEAN_MOTION_DOT":2.27e-6,"MEAN_MOTION_DDOT":0},{"OBJECT_NAME":"ONEWEB-0221","OBJECT_ID":"2021-045Y","EPOCH":"2025-09-04T04:37:00.085440","MEAN_MOTION":13.1554958,"ECCENTRICITY":0.00016607,"INCLINATION":87.9047,"RA_OF_ASC_NODE":316.2459,"ARG_OF_PERICENTER":93.7655,"MEAN_ANOMALY":266.3665,"EPHEMERIS_TYPE":0,"CLASSIFICATION_TYPE":"U","NORAD_CAT_ID":48789,"ELEMENT_SET_NO":999,"REV_AT_EPOCH":20677,"BSTAR":0.00045811663,"MEAN_MOTION_DOT":1.85e-6,"MEAN_MOTION_DDOT":0},{"OBJECT_NAME":"ONEWEB-0213","OBJECT_ID":"2021-045Z","EPOCH":"2025-09-04T04:21:01.833408","MEAN_MOTION":13.15548644,"ECCENTRICITY":0.00016761,"INCLINATION":87.9046,"RA_OF_ASC_NODE":316.2564,"ARG_OF_PERICENTER":90.1478,"MEAN_ANOMALY":269.9844,"EPHEMERIS_TYPE":0,"CLASSIFICATION_TYPE":"U","NORAD_CAT_ID":48790,"ELEMENT_SET_NO":999,"REV_AT_EPOCH":20683,"BSTAR":0.00048258724,"MEAN_MOTION_DOT":1.94e-6,"MEAN_MOTION_DDOT":0},{"OBJECT_NAME":"ONEWEB-0212","OBJECT_ID":"2021-045AA","EPOCH":"2025-09-04T05:37:27.926400","MEAN_MOTION":13.15548112,"ECCENTRICITY":0.00018879,"INCLINATION":87.9051,"RA_OF_ASC_NODE":316.2284,"ARG_OF_PERICENTER":98.7871,"MEAN_ANOMALY":261.3473,"EPHEMERIS_TYPE":0,"CLASSIFICATION_TYPE":"U","NORAD_CAT_ID":48791,"ELEMENT_SET_NO":999,"REV_AT_EPOCH":20683,"BSTAR":1.8041083e-5,"MEAN_MOTION_DOT":2.0e-7,"MEAN_MOTION_DDOT":0},{"OBJECT_NAME":"ONEWEB-0227","OBJECT_ID":"2021-045AB","EPOCH":"2025-09-04T05:36:19.171872","MEAN_MOTION":13.15548282,"ECCENTRICITY":0.00017403,"INCLINATION":87.9046,"RA_OF_ASC_NODE":316.2476,"ARG_OF_PERICENTER":96.3696,"MEAN_ANOMALY":263.7633,"EPHEMERIS_TYPE":0,"CLASSIFICATION_TYPE":"U","NORAD_CAT_ID":48792,"ELEMENT_SET_NO":999,"REV_AT_EPOCH":20678,"BSTAR":-0.00010664892,"MEAN_MOTION_DOT":-2.7e-7,"MEAN_MOTION_DDOT":0},{"OBJECT_NAME":"ONEWEB-0226","OBJECT_ID":"2021-045AC","EPOCH":"2025-09-04T05:27:08.785728","MEAN_MOTION":13.15572774,"ECCENTRICITY":0.00018933,"INCLINATION":87.9049,"RA_OF_ASC_NODE":316.2557,"ARG_OF_PERICENTER":87.469,"MEAN_ANOMALY":272.6658,"EPHEMERIS_TYPE":0,"CLASSIFICATION_TYPE":"U","NORAD_CAT_ID":48793,"ELEMENT_SET_NO":999,"REV_AT_EPOCH":20675,"BSTAR":0.0072055126,"MEAN_MOTION_DOT":2.727e-5,"MEAN_MOTION_DDOT":0},{"OBJECT_NAME":"ONEWEB-0224","OBJECT_ID":"2021-045AD","EPOCH":"2025-09-04T04:34:43.089600","MEAN_MOTION":13.1554836,"ECCENTRICITY":0.00012847,"INCLINATION":87.9048,"RA_OF_ASC_NODE":316.2984,"ARG_OF_PERICENTER":126.8976,"MEAN_ANOMALY":233.2272,"EPHEMERIS_TYPE":0,"CLASSIFICATION_TYPE":"U","NORAD_CAT_ID":48794,"ELEMENT_SET_NO":999,"REV_AT_EPOCH":20667,"BSTAR":0.00043288509,"MEAN_MOTION_DOT":1.76e-6,"MEAN_MOTION_DDOT":0},{"OBJECT_NAME":"ONEWEB-0233","OBJECT_ID":"2021-045AE","EPOCH":"2025-09-04T04:41:21.270048","MEAN_MOTION":13.15549885,"ECCENTRICITY":0.00015495,"INCLINATION":87.9056,"RA_OF_ASC_NODE":316.3081,"ARG_OF_PERICENTER":89.6005,"MEAN_ANOMALY":270.5303,"EPHEMERIS_TYPE":0,"CLASSIFICATION_TYPE":"U","NORAD_CAT_ID":48795,"ELEMENT_SET_NO":999,"REV_AT_EPOCH":20669,"BSTAR":-0.00029658458,"MEAN_MOTION_DOT":-9.9e-7,"MEAN_MOTION_DDOT":0},{"OBJECT_NAME":"ONEWEB-0190","OBJECT_ID":"2021-045AF","EPOCH":"2025-09-04T04:23:18.352320","MEAN_MOTION":13.15550461,"ECCENTRICITY":0.00012566,"INCLINATION":87.905,"RA_OF_ASC_NODE":316.2738,"ARG_OF_PERICENTER":77.2045,"MEAN_ANOMALY":282.9225,"EPHEMERIS_TYPE":0,"CLASSIFICATION_TYPE":"U","NORAD_CAT_ID":48796,"ELEMENT_SET_NO":999,"REV_AT_EPOCH":20676,"BSTAR":0.00054179509,"MEAN_MOTION_DOT":2.17e-6,"MEAN_MOTION_DDOT":0},{"OBJECT_NAME":"ONEWEB-0236","OBJECT_ID":"2021-045AG","EPOCH":"2025-09-04T04:48:24.954912","MEAN_MOTION":13.15549083,"ECCENTRICITY":0.00019559,"INCLINATION":87.9051,"RA_OF_ASC_NODE":316.281,"ARG_OF_PERICENTER":100.728,"MEAN_ANOMALY":259.4071,"EPHEMERIS_TYPE":0,"CLASSIFICATION_TYPE":"U","NORAD_CAT_ID":48797,"ELEMENT_SET_NO":999,"REV_AT_EPOCH":20665,"BSTAR":0.00028597814,"MEAN_MOTION_DOT":1.2e-6,"MEAN_MOTION_DDOT":0},{"OBJECT_NAME":"ONEWEB-0248","OBJECT_ID":"2021-045AH","EPOCH":"2025-09-04T05:06:39.424320","MEAN_MOTION":13.15549301,"ECCENTRICITY":0.00012452,"INCLINATION":87.9058,"RA_OF_ASC_NODE":316.2326,"ARG_OF_PERICENTER":103.1015,"MEAN_ANOMALY":257.0254,"EPHEMERIS_TYPE":0,"CLASSIFICATION_TYPE":"U","NORAD_CAT_ID":48798,"ELEMENT_SET_NO":999,"REV_AT_EPOCH":20681,"BSTAR":7.4699262e-5,"MEAN_MOTION_DOT":4.1e-7,"MEAN_MOTION_DDOT":0}]
