ONEWEB-0234             
1 48783U 21045S   25247.18589537  .00000235  00000+0  59022-3 0  9998
2 48783  87.9054 316.2408 0002093 123.1247 237.0084 13.15550852206875
ONEWEB-0238             
1 48784U 21045T   25247.18616601  .00000180  00000+0  44369-3 0  9999
2 48784  87.9049 316.2369 0001962 108.5090 251.6253 13.15548684206772
ONEWEB-0240             
1 48785U 21045U   25247.20740972 -.00000020  00000+0 -87366-4 0  9992
2 48785  87.9057 316.2167 0001499 100.2321 259.8979 13.15547298206808
ONEWEB-0246             
1 48786U 21045V   25247.20186697  .00000049  00000+0  96324-4 0  9994
2 48786  87.9059 316.2302 0001854  92.4120 267.7223 13.15548692206670
ONEWEB-0210             
1 48787U 21045W   25247.17651663  .00000152  00000+0  37056-3 0  9992
2 48787  87.9057 316.2347 0001695  75.4428 284.6890 13.15548088206715
ONEWEB-0214             
1 48788U 21045X   25247.18521906  .00000227  00000+0  56843-3 0  9998
2 48788  87.9055 316.2208 0001900  82.1233 278.0113 13.15547638206689
ONEWEB-0221             
1 48789U 21045Y   25247.19236210  .00000185  00000+0  45812-3 0  9998
2 48789  87.9047 316.2459 0001660  93.7655 266.3665 13.15549580206778
ONEWEB-0213             
1 48790U 21045Z   25247.18127122  .00000194  00000+0  48259-3 0  9998
2 48790  87.9046 316.2564 0001676  90.1478 269.9844 13.15548644206832
ONEWEB-0212             
1 48791U 21045AA  25247.23435100  .00000020  00000+0  18041-4 0  9998
2 48791  87.9051 316.2284 0001887  98.7871 261.3473 13.15548112206837
ONEWEB-0227             
1 48792U 21045AB  25247.23355523 -.00000027  00000+0 -10665-3 0  9991
2 48792  87.9046 316.2476 0001740  96.3696 263.7633 13.15548282206788
ONEWEB-0226             
1 48793U 21045AC  25247.22718502  .00002727  00000+0  72055-2 0  9998
2 48793  87.9049 316.2557 0001893  87.4690 272.6658 13.15572774206752
ONEWEB-0224             
1 48794U 21045AD  25247.19077650  .00000176  00000+0  43289-3 0  9991
2 48794  87.9048 316.2984 0001284 126.8976 233.2272 13.15548360206675
ONEWEB-0233             
1 48795U 21045AE  25247.19538507 -.00000099  00000+0 -29658-3 0  9995
2 48795  87.9056 316.3081 0001549  89.6005 270.5303 13.15549885206691
ONEWEB-0190             
1 48796U 21045AF  25247.18285130  .00000217  00000+0  54180-3 0  9994
2 48796  87.9050 316.2738 0001256  77.2045 282.9225 13.15550461206766
ONEWEB-0236             
1 48797U 21045AG  25247.20028883  .00000120  00000+0  28598-3 0  9995
2 48797  87.9051 316.2810 0001955 100.7280 259.4071 13.15549083206652
ONEWEB-0248             
1 48798U 21045AH  25247.21295630  .00000041  00000+0  74699-4 0  9999
2 48798  87.9058 316.2326 0001245 103.1015 257.0254 13.15549301206815
